{"type":"FeatureCollection","features":[{"type":"Feature","id":"monitoring-area-1","properties":{"id":"monitoring-area-1","name":"תעלה  - עיינות ציפורי","color":"#7c3aed"},"geometry":{"type":"Polygon","coordinates":[[[35.273182060702815,32.732659692616636],[35.27331325892569,32.73259325625315],[35.273457078928715,32.73254901307156],[35.2736082748947,32.73252857683201],[35.274616767309745,32.73247447724052],[35.27469634156383,32.732473537179175],[35.27529713702617,32.73249153704306],[35.2753231904569,32.732492674789356],[35.275780496029476,32.732518925569664],[35.276108975355434,32.73252753700944],[35.27626484601582,32.73254458945915],[35.27641376701696,32.732586894118946],[35.27655001551545,32.732652825278834],[35.27666835562562,32.73273984929029],[35.27676423962141,32.73284462192552],[35.27683398270018,32.73296311688567],[35.27687490459286,32.73309078052096],[35.2768854325776,32.73322270681795],[35.27686516193635,32.733353825930614],[35.27681487152823,32.733479099010495],[35.276736493878296,32.733593711849025],[35.27663304092794,32.73369325989013],[35.276508488298006,32.73377391750225],[35.27636762251069,32.7338325850038],[35.27621585704086,32.73386700779056],[35.276059024266885,32.73387586298563],[35.27571572167282,32.733866862917566],[35.2756861122665,32.733865625391566],[35.27522702462701,32.733839272364335],[35.274679073497126,32.73382285577753],[35.27394643109876,32.733862158242076],[35.27384684430598,32.733924206672874],[35.27371197117773,32.733992112281115],[35.2735639406505,32.73403657916112],[35.273408441558665,32.73405589843974],[35.27325144977411,32.734049327671556],[35.27309899853712,32.73401711937314],[35.27295694658198,32.73396051131809],[35.272830752971,32.73388167896608],[35.27272526729281,32.73378365185443],[35.27264454328951,32.73367019716646],[35.272591683075596,32.73354567495211],[35.2725687179352,32.73341487056617],[35.272576530276815,32.733282810764216],[35.27261481974247,32.73315457052471],[35.27268211477076,32.7330350780214],[35.27277582916615,32.73292892524031],[35.27289236149803,32.732840191519045],[35.273182060702815,32.732659692616636]]]}},{"type":"Feature","id":"monitoring-area-2","properties":{"id":"monitoring-area-2","name":"במורד הנחל - עיינות ציפורי","color":"#dc2626"},"geometry":{"type":"Polygon","coordinates":[[[35.271951729281646,32.73352830503292],[35.27193728821751,32.73348121788975],[35.271932149433,32.73333066025422],[35.27196435232538,32.73300576045848],[35.271985521010805,32.73289821157357],[35.272060623078296,32.73264551203736],[35.27210588152269,32.73253499161548],[35.27217750935386,32.73239952387345],[35.27218891377983,32.73226486981024],[35.272211226028816,32.732147876567076],[35.272257531578525,32.73203597304888],[35.27245073394055,32.731674874170345],[35.27252898371308,32.73156020033299],[35.27263232436598,32.731460571606625],[35.27275678455766,32.73137981661119],[35.27289758138697,32.73132103866106],[35.27304930419219,32.731286496514755],[35.27320612246733,32.73127751757906],[35.27336200990747,32.7312944469017],[35.27351097597602,32.731336633912726],[35.27364729609779,32.731402457423215],[35.27376573163489,32.731489387921506],[35.2738617311943,32.73159408477344],[35.27393160553259,32.7317125245925],[35.27397266933666,32.73184015584802],[35.27398334443122,32.73197207377096],[35.27396322044491,32.73210320883726],[35.273913070600926,32.73222852158542],[35.27377836164746,32.73248030323448],[35.27376708933617,32.732613425247415],[35.273745210091654,32.73272897395852],[35.27369992137707,32.7328396033743],[35.273599465378155,32.733029599320936],[35.2735570481888,32.73317233085284],[35.273553489454414,32.73320824202494],[35.27359148989378,32.73325617471019],[35.27366453068766,32.73337095102962],[35.27370999815276,32.7334953931713],[35.273726198292366,32.733624865074006],[35.273712527444474,32.733754543273655],[35.27366949478983,32.73387959659977],[35.27359870340107,32.73399536616216],[35.273502790536355,32.73409753892211],[35.273270418628066,32.73430112501714],[35.273095154085375,32.734485456312015],[35.27295012458206,32.73466072648402],[35.27290395247139,32.73472292169028],[35.27276237397355,32.735080132352635],[35.27267193188068,32.735237046909184],[35.27219983446686,32.73584174942116],[35.27210257985008,32.73594334376487],[35.27198389634364,32.73602729184229],[35.271125593521475,32.73652369493781],[35.270943624149695,32.73660230037663],[35.27055742175908,32.736719601211554],[35.27040505317891,32.736752100427594],[35.270248074763195,32.736758970846424],[35.270092519238425,32.73673994843583],[35.26994436464534,32.736695764232515],[35.26980930458653,32.73662811624633],[35.269692529408495,32.73653960420127],[35.26959852672982,32.73643362962196],[35.269530908982375,32.73631426510635],[35.269492274593375,32.73618609780987],[35.26948410814228,32.736054053156835],[35.269506723327204,32.735923205555096],[35.26955925093012,32.73579858338846],[35.26963967224006,32.735684975781204],[35.269744896647,32.735586748560145],[35.269870880422,32.73550767648595],[35.2700127821176,32.735450798199764],[35.27030198712573,32.7353629585784],[35.27094570794803,32.73499066231387],[35.27127409262146,32.73457004719025],[35.271412732954005,32.73422026409064],[35.27149329203193,32.73407633185434],[35.271600492704074,32.73393193243314],[35.271622500999456,32.73390386901658],[35.271794201789234,32.73369636991363],[35.27182612503924,32.73366040488734],[35.271951729281646,32.73352830503292]]]}},{"type":"Feature","id":"monitoring-area-3","properties":{"id":"monitoring-area-3","name":"אחו לח - עיינות ציפורי","color":"#0891b2"},"geometry":{"type":"Polygon","coordinates":[[[35.27105123296291,32.734330185776855],[35.27101446368706,32.734201912368405],[35.27100808658985,32.734070071755625],[35.27103234559325,32.73393970956434],[35.27126835182645,32.73317261101875],[35.27132311274767,32.73304733264717],[35.27140612889268,32.73293357866663],[35.27151414904961,32.732835803955744],[35.271642942830674,32.73275783759313],[35.27205064105502,32.732559338893154],[35.272203948355354,32.73250177933344],[35.27236814318074,32.732472335135164],[35.27253602736596,32.73247229710633],[35.27273982584912,32.73249029697086],[35.27289378836529,32.73251692638352],[35.273038616846364,32.73256831085827],[35.27316874570908,32.73264247575913],[35.27327917422417,32.732736571023175],[35.27336565868399,32.73284698067885],[35.273424875486114,32.73296946179707],[35.27345454886556,32.7330993075367],[35.27345353836588,32.733231528019786],[35.2734218826853,32.733361042086585],[35.273360798210085,32.7334828725618],[35.27327263228832,32.733592337528],[35.273160773036984,32.733685230255304],[35.27302951914611,32.733757980871644],[35.272883914682254,32.73380779355955],[35.2727295552398,32.73383275400581],[35.272721751182445,32.73383271175694],[35.2726456614341,32.734080042325],[35.27273756637464,32.73430240863762],[35.27277438326227,32.73443095374924],[35.27278068022679,32.73456307082384],[35.272756215145066,32.73469368268085],[35.27270192806827,32.73481776996245],[35.27261990511575,32.734930564027245],[35.27251329832218,32.735027730212124],[35.27238620451609,32.735105534418636],[35.27224350788258,32.73516098662084],[35.272090692260605,32.735191955778525],[35.27193363038876,32.73519725173854],[35.271778358201004,32.73517667097558],[35.27163084284864,32.735131004414235],[35.271496753366506,32.735062007031594],[35.27138124279958,32.73497233040883],[35.271288750164935,32.734865420824725],[35.27122282986121,32.7347453868086],[35.27105123296291,32.734330185776855]]]}},{"type":"Feature","id":"monitoring-area-4","properties":{"id":"monitoring-area-4","name":"נחל ציפורי - ביקורת מפגש הנחלים","color":"#ea580c"},"geometry":{"type":"Polygon","coordinates":[[[35.219041120172804,32.74532495466455],[35.219131040447,32.745307980971866],[35.220105417298186,32.7451729613557],[35.220652971805414,32.745094670554465],[35.22170701485116,32.744899659311585],[35.221863120260686,32.74488404702408],[35.22201984743459,32.744894349549035],[35.22217117356861,32.74493017097499],[35.22231128339932,32.744990134734195],[35.22243479266384,32.745071936498846],[35.22253695500201,32.74517243272811],[35.222613844351535,32.745287761464255],[35.222662505827536,32.745413490737],[35.22268106928781,32.74554478887428],[35.22266882121794,32.745676610175586],[35.2226262321712,32.745803888813455],[35.222554938705784,32.74592173351164],[35.22245768051021,32.746025615518654],[35.22233819513078,32.746111542652116],[35.222201074344554,32.74617621272444],[35.222051587696754,32.7462171404527],[35.220978680147496,32.746415641920485],[35.2209408031636,32.74642184988384],[35.2203721990423,32.746503150490646],[35.22036816859652,32.746503717882504],[35.219437303036194,32.746632708367024],[35.21880577851539,32.746784446132374],[35.21865111232166,32.74680812896103],[35.218493924626856,32.746805978215285],[35.21834025620068,32.74677807654896],[35.218196012557385,32.7467254962308],[35.218066736991446,32.74665025793434],[35.21795739753788,32.74655525307818],[35.21787219604618,32.7464441327023],[35.21781440670627,32.74632116715209],[35.21778625023169,32.74619108196344],[35.21778880853382,32.74605887625716],[35.2178219831638,32.74592963062258],[35.217884499116415,32.745808311873546],[35.21797395384649,32.74569958218018],[35.218086909611415,32.745607619910565],[35.21821902558888,32.745535959066494],[35.21836522469158,32.74548735348238],[35.219041120172804,32.74532495466455]]]}},{"type":"Feature","id":"monitoring-area-5","properties":{"id":"monitoring-area-5","name":"אחו לח - מפגש הנחלים","color":"#4f46e5"},"geometry":{"type":"Polygon","coordinates":[[[35.219989388377485,32.74755572293948],[35.21998918869201,32.74757855066674],[35.219957384986955,32.74770803995956],[35.2198961562411,32.74782982268474],[35.219807855346865,32.74793921875979],[35.21969587560836,32.748032024102194],[35.21956452034611,32.74810467219801],[35.21913541826271,32.74829417346834],[35.21901212878993,32.748338008971245],[35.21888188768795,32.74836398684929],[35.21874832334422,32.748371383383756],[35.2181474187967,32.748362383315616],[35.21799436255229,32.748347643276944],[35.217847481619664,32.74830856055351],[35.21771219638169,32.74824657742765],[35.21759349927566,32.748163981278815],[35.21749577054965,32.74806382016682],[35.21742261661677,32.747949790343164],[35.21737673697303,32.747826099842214],[35.21728024024227,32.74743809924075],[35.21726325820698,32.74730272534707],[35.21727894015453,32.74716724054883],[35.21732664719758,32.747037163280474],[35.2174044360539,32.746917791698735],[35.217509138217885,32.74681398788868],[35.21779343810311,32.746583889143984],[35.21790855773526,32.74650651935613],[35.21803856549514,32.74644817201114],[35.21817907173522,32.74641081716711],[35.218549169126675,32.74634311766797],[35.21868764102274,32.74632824554532],[35.21882708130286,32.74633379511851],[35.21896326480796,32.74635959823075],[35.219333462409224,32.74645889751448],[35.21948777229643,32.74651592492827],[35.21962450243151,32.74659881949059],[35.21973761292738,32.74670391946955],[35.2198824134948,32.74687081872469],[35.219966764711984,32.74699321130544],[35.220018907544606,32.74712770977447],[35.2200365480428,32.747268397446625],[35.22003654865223,32.74733609744662],[35.22002114059554,32.747467684068305],[35.219989388377485,32.74755572293948]]]}},{"type":"Feature","id":"monitoring-area-6","properties":{"id":"monitoring-area-6","name":"נק' תצפית ציפורים - מפגש הנחלים","color":"#be123c"},"geometry":{"type":"Polygon","coordinates":[[[35.21721208401876,32.746911696085775],[35.21723836700812,32.74689968985719],[35.2173884982054,32.74686046346097],[35.217544843375485,32.746846624773916],[35.217701394393025,32.7468587055972],[35.217852135222785,32.74689624168186],[35.21799127309228,32.7469577905681],[35.21821117230484,32.74707958979794],[35.2183363198939,32.74716525466149],[35.21843854510577,32.747270256377995],[35.21851370944525,32.74739034413751],[35.21855876989077,32.74752065637999],[35.218571902100706,32.74765591760169],[35.21855257428943,32.747790651922394],[35.21850156877899,32.747919404768346],[35.21842095035047,32.748036963696514],[35.218313982672406,32.748138569420114],[35.21818499618675,32.74822010849111],[35.218039212798914,32.74827827983809],[35.21788253446858,32.748310728415625],[35.217721304261126,32.74831614055308],[35.217650851437284,32.7483064772552],[35.217497193529454,32.748394455990464],[35.217359191798664,32.74845779204428],[35.217209150191216,32.74849726741502],[35.21705283483275,32.74851136505399],[35.21689625296657,32.74849954318485],[35.21674542207865,32.74846225612547],[35.21660613862881,32.74840093682733],[35.216483755278745,32.74831794180324],[35.21638297518055,32.74821646056086],[35.21630767123285,32.7481003930232],[35.21626073725118,32.74797419964832],[35.216243976771345,32.747842730009154],[35.216258033757434,32.74771103642223],[35.21630236787468,32.74758417978812],[35.216375275274466,32.74746703510547],[35.21647395408947,32.74736410413217],[35.2165946121196,32.74727934239235],[35.216730823856054,32.74720135314883],[35.216761136617556,32.74716614106188],[35.21686816541123,32.747064989328976],[35.216997059183136,32.74698385606597],[35.21714262327114,32.7469260110637],[35.21721208401876,32.746911696085775]]]}},{"type":"Feature","id":"monitoring-area-7","properties":{"id":"monitoring-area-7","name":"במורד הנחל ממפגש הנחלים","color":"#0f766e"},"geometry":{"type":"Polygon","coordinates":[[[35.21732540781784,32.747593315961176],[35.21739658242597,32.747469299322795],[35.21747846987741,32.74735642970012],[35.21758496452418,32.74725916512226],[35.21771197382562,32.747181243355875],[35.21785461692669,32.747125658836794],[35.21800741222017,32.747094547603616],[35.21816448798851,32.7470891052177],[35.218319808032376,32.747109540822194],[35.21846740361796,32.7471550691056],[35.21860160283253,32.74722394047816],[35.218717248537196,32.747313508302085],[35.21880989654347,32.747420330592625],[35.21887598639927,32.747540302283056],[35.21891297822133,32.74766881297181],[35.218919450314786,32.74780092409119],[35.21889515382636,32.747931558689565],[35.2188410223281,32.74805569653531],[35.21872842354818,32.74825189718105],[35.21862790119514,32.7483847606554],[35.218450801623895,32.74856756152968],[35.21831908080742,32.748675457339175],[35.2181616027863,32.7487552845739],[35.217949701629365,32.74883648513339],[35.217904819258536,32.74885231898961],[35.217695617998196,32.748919919467404],[35.217505274383065,32.74895981011312],[35.2173205239378,32.748978797681886],[35.21697061279258,32.749041477624466],[35.21669777076653,32.749134389226974],[35.21661540656901,32.74915814758957],[35.21631240453884,32.749230348115546],[35.21623676223428,32.74924508658514],[35.21614816159583,32.749258586685706],[35.215991464827745,32.749269291340696],[35.21583529590646,32.74925407932037],[35.215685656447306,32.74921353522712],[35.215548297120236,32.749149217180786],[35.21542849663819,32.749063596936026],[35.215330858888265,32.74895996488677],[35.2152591360036,32.74884230360976],[35.215216084175744,32.74871513480792],[35.215203357747676,32.748583345536865],[35.21522144565585,32.748452000393485],[35.21526965266083,32.74832614688505],[35.21534612608499,32.7482106214582],[35.21544792702652,32.748109863642114],[35.21557114331056,32.7480277454472],[35.21571103983524,32.74796742257446],[35.21586224053428,32.747931213152015],[35.21591259462467,32.747923540699055],[35.21613624715658,32.74787024795337],[35.21643383147466,32.747768910861545],[35.216567745982324,32.74773440589189],[35.217021042777745,32.7476532064932],[35.2170908287071,32.74764338964189],[35.21721263436543,32.74763087123886],[35.21730685811733,32.747600424173704],[35.21732540781784,32.747593315961176]]]}},{"type":"Feature","id":"monitoring-area-8","properties":{"id":"monitoring-area-8","name":"נחל יפתחאל - ביקורת מפגש הנחלים","color":"#9333ea"},"geometry":{"type":"Polygon","coordinates":[[[35.22387552951537,32.750376024891175],[35.22435531968493,32.75077959103886],[35.22441879931334,32.750839770498374],[35.224637000423705,32.75107331794861],[35.22493952172369,32.75135318828799],[35.22503336592467,32.751459272037],[35.22510079918687,32.75157871495274],[35.2251392300026,32.75170692695486],[35.225147181378446,32.75183898095491],[35.225124347613345,32.751969802197436],[35.22507160606692,32.7520943632792],[35.224990983462725,32.75220787735179],[35.2248855780183,32.752305982083186],[35.22475944039215,32.75238490730712],[35.224617418021246,32.75244161991721],[35.22446496883089,32.7524739404357],[35.2243079514767,32.752480626776325],[35.224152400181715,32.75246142198102],[35.22400429282412,32.7524170640956],[35.223869321191096,32.75234925780457],[35.22375267223073,32.7522606089156],[35.223430772575114,32.751962807398655],[35.22339359410186,32.75192582752561],[35.22318719704261,32.75170491113589],[35.22273827424282,32.75132730423275],[35.222732286706155,32.75132221409348],[35.222238686820376,32.75089811184705],[35.22214025529076,32.7507950109593],[35.22206763116408,32.75067774072556],[35.222023605267516,32.75055080782162],[35.22200986937787,32.75041909023827],[35.22202695122491,32.750287649818226],[35.22207419423119,32.75016153773088],[35.22214978276397,32.75004560036054],[35.22225081192585,32.74994429306749],[35.22237339919933,32.74986150897837],[35.222512833653354,32.74980042938393],[35.22266375697735,32.74976340149229],[35.22282036938629,32.74975184823405],[35.222976652485904,32.749766213584564],[35.22312660053598,32.74980594550376],[35.22326445122751,32.74986951714874],[35.223384907108226,32.74995448554464],[35.22387552951537,32.750376024891175]]]}}]}